NORAD_CAT_ID,OBJECT_NAME,OBJECT_TYPE,EPOCH,MEAN_MOTION,ECCENTRICITY,INCLINATION,RA_OF_ASC_NODE,ARG_OF_PERICENTER,MEAN_ANOMALY,BSTAR,MEAN_MOTION_DOT,MEAN_MOTION_DDOT,TLE_LINE0,TLE_LINE1,TLE_LINE2,SEMIMAJOR_AXIS,PERIOD,APOGEE,PERIGEE,DECAYED
53151.0,STARLINK-4040,PAYLOAD,2023-03-08 15:59:37,15.08850047,0.0001411,53.2169,48.8457,95.5586,264.5567,0.00086336,0.00013483,0.0,0 STARLINK-4040,1 53151U 22083V   23067.66640117  .00013483  00000-0  86336-3 0  9997,2 53151  53.2169  48.8457 0001411  95.5586 264.5567 15.08850047 36376,6917.85,95.437,540.691,538.739,0.0
53151.0,STARLINK-4040,PAYLOAD,2023-03-08 22:21:09,15.08858345,0.000139,53.2172,47.6566,95.6263,264.4887,0.0018832,0.00029825,0.0,0 STARLINK-4040,1 53151U 22083V   23067.93136198  .00029825  00000-0  18832-2 0  9998,2 53151  53.2172  47.6566 0001390  95.6263 264.4887 15.08858345 35784,6917.824,95.436,540.651,538.728,0.0
53151.0,STARLINK-4040,PAYLOAD,2023-03-09 15:50:24,15.08870929,0.0001763,53.2175,44.3846,84.3436,275.7757,0.0026121,0.00041565,0.0,0 STARLINK-4040,1 53151U 22083V   23068.66000329  .00041565  00000-0  26121-2 0  9990,2 53151  53.2175  44.3846 0001763  84.3436 275.7757 15.08870929 36529,6917.786,95.436,540.87,538.431,0.0
53151.0,STARLINK-4040,PAYLOAD,2023-03-09 22:11:56,15.08868406,0.0001969,53.217,43.195,89.2877,270.8341,0.0027562,0.00043885,0.0,0 STARLINK-4040,1 53151U 22083V   23068.92496173  .00043885  00000-0  27562-2 0  9992,2 53151  53.2170  43.1950 0001969  89.2877 270.8341 15.08868406 35934,6917.794,95.436,541.021,538.296,0.0
53151.0,STARLINK-4040,PAYLOAD,2023-03-10 02:58:05,15.08872738,0.0001695,53.218,42.3012,96.7609,263.3576,0.0019403,0.00030755,0.0,0 STARLINK-4040,1 53151U 22083V   23069.12367756  .00030755  00000-0  19403-2 0  9996,2 53151  53.2180  42.3012 0001695  96.7609 263.3576 15.08872738 36590,6917.78,95.435,540.818,538.473,0.0
53151.0,STARLINK-4040,PAYLOAD,2023-03-10 15:41:10,15.08849909,0.0001454,53.2187,39.9234,78.6964,281.4191,0.00080812,0.000126,0.0,0 STARLINK-4040,1 53151U 22083V   23069.65359865  .00012600  00000-0  80812-3 0  9998,2 53151  53.2187  39.9234 0001454  78.6964 281.4191 15.08849909 36678,6917.85,95.437,540.721,538.709,0.0
53151.0,STARLINK-4040,PAYLOAD,2023-03-11 04:24:16,15.08827713,0.000142,53.2184,37.5462,71.2946,288.82,0.0023006,0.00036504,0.0,0 STARLINK-4040,1 53151U 22083V   23070.18352862  .00036504  00000-0  23006-2 0  9998,2 53151  53.2184  37.5462 0001420  71.2946 288.8200 15.08827713 36754,6917.918,95.438,540.765,538.801,0.0
53151.0,STARLINK-4040,PAYLOAD,2023-03-11 21:53:31,15.08857252,0.0001381,53.2187,34.2753,65.442,294.6716,0.0019816,0.00031405,0.0,0 STARLINK-4040,1 53151U 22083V   23070.91217258  .00031405  00000-0  19816-2 0  9997,2 53151  53.2187  34.2753 0001381  65.4420 294.6716 15.08857252 36233,6917.828,95.436,540.648,538.737,0.0
53151.0,STARLINK-4040,PAYLOAD,2023-03-11 23:28:54,15.08850589,0.0001307,53.2176,33.9787,65.4566,294.6562,0.0014184,0.00022364,0.0,0 STARLINK-4040,1 53151U 22083V   23070.97841211  .00022364  00000-0  14184-2 0  9992,2 53151  53.2176  33.9787 0001307  65.4566 294.6562 15.08850589 36878,6917.848,95.437,540.617,538.809,0.0
53151.0,STARLINK-4040,PAYLOAD,2023-03-12 04:15:03,15.08858639,0.0001246,53.2187,33.0855,95.7366,264.3769,0.0010812,0.0001697,0.0,0 STARLINK-4040,1 53151U 22083V   23071.17712857  .00016970  00000-0  10812-2 0  9998,2 53151  53.2187  33.0855 0001246  95.7366 264.3769 15.08858639 36274,6917.823,95.436,540.55,538.826,0.0
53151.0,STARLINK-4040,PAYLOAD,2023-03-12 21:44:18,15.08859594,0.0001264,53.2187,29.8147,104.4718,255.6414,0.00048374,7.423e-05,0.0,0 STARLINK-4040,1 53151U 22083V   23071.90576438  .00007423  00000-0  48374-3 0  9990,2 53151  53.2187  29.8147 0001264 104.4718 255.6414 15.08859594 36383,6917.82,95.436,540.56,538.811,0.0
53151.0,STARLINK-4040,PAYLOAD,2023-03-12 23:19:41,15.08863409,0.0001369,53.2193,29.5185,106.0128,254.1015,0.00082228,0.00012831,0.0,0 STARLINK-4040,1 53151U 22083V   23071.97200350  .00012831  00000-0  82228-3 0  9999,2 53151  53.2193  29.5185 0001369 106.0128 254.1015 15.08863409 37021,6917.809,95.436,540.621,538.727,0.0
53151.0,STARLINK-4040,PAYLOAD,2023-03-13 07:16:36,15.08874101,0.0001379,53.2184,28.0308,108.9002,251.2139,0.00095022,0.00014881,0.0,0 STARLINK-4040,1 53151U 22083V   23072.30319670  .00014881  00000-0  95022-3 0  9996,2 53151  53.2184  28.0308 0001379 108.9002 251.2139 15.08874101 36446,6917.776,95.435,540.595,538.687,0.0
53151.0,STARLINK-4040,PAYLOAD,2023-03-14 02:21:14,15.08826128,0.0001409,53.2188,24.4631,113.6465,246.4675,0.00022122,3.233e-05,0.0,0 STARLINK-4040,1 53151U 22083V   23073.09808949  .00003233  00000-0  22122-3 0  9995,2 53151  53.2188  24.4631 0001409 113.6465 246.4675 15.08826128 37199,6917.923,95.438,540.763,538.813,0.0
53151.0,STARLINK-4040,PAYLOAD,2023-03-14 13:28:57,15.08840404,0.0001109,53.2183,22.3812,66.3056,293.8052,0.0011305,0.0001775,0.0,0 STARLINK-4040,1 53151U 22083V   23073.56177418  .00017750  00000-0  11305-2 0  9996,2 53151  53.2183  22.3812 0001109  66.3056 293.8052 15.08840404 36635,6917.879,95.438,540.511,538.977,0.0
53151.0,STARLINK-4040,PAYLOAD,2023-03-15 03:47:24,15.08887413,0.0001191,53.218,19.7079,72.832,287.2803,0.002017,0.00032,0.0,0 STARLINK-4040,1 53151U 22083V   23074.15792320  .00032000  00000-0  20170-2 0  9992,2 53151  53.2180  19.7079 0001191  72.8320 287.2803 15.08887413 37356,6917.735,95.435,540.424,538.777,0.0
53151.0,STARLINK-4040,PAYLOAD,2023-03-15 05:22:47,15.08897731,0.0001215,53.218,19.4106,74.0134,286.0992,0.0022831,0.00036292,0.0,0 STARLINK-4040,1 53151U 22083V   23074.22415993  .00036292  00000-0  22831-2 0  9991,2 53151  53.2180  19.4106 0001215  74.0134 286.0992 15.08897731 36739,6917.704,95.434,540.409,538.728,0.0
53151.0,STARLINK-4040,PAYLOAD,2023-03-16 03:38:11,15.08862258,0.0001234,53.2174,15.2474,101.0897,259.0234,0.0022831,0.00036257,0.0,0 STARLINK-4040,1 53151U 22083V   23075.15152460  .00036257  00000-0  22831-2 0  9992,2 53151  53.2174  15.2474 0001234 101.0897 259.0234 15.08862258 37503,6917.812,95.436,540.531,538.824,0.0
53151.0,STARLINK-4040,PAYLOAD,2023-03-16 19:32:04,15.08826776,0.0001605,53.2172,12.2728,108.3167,251.7999,0.0038189,0.00060994,0.0,0 STARLINK-4040,1 53151U 22083V   23075.81393730  .00060994  00000-0  38189-2 0  9990,2 53151  53.2172  12.2728 0001605 108.3167 251.7999 15.08826776 37605,6917.921,95.438,540.896,538.675,0.0
53151.0,STARLINK-4040,PAYLOAD,2023-03-17 01:53:36,15.08827283,0.0001451,53.217,11.0831,87.5831,272.5328,0.00086154,0.00013445,0.0,0 STARLINK-4040,1 53151U 22083V   23076.07889934  .00013445  00000-0  86154-3 0  9990,2 53151  53.2170  11.0831 0001451  87.5831 272.5328 15.08827283 37645,6917.919,95.438,540.788,538.78,0.0
53151.0,STARLINK-4040,PAYLOAD,2023-03-17 13:01:19,15.08832127,0.0001346,53.2171,8.9993,94.4974,265.6172,0.00059787,9.238e-05,0.0,0 STARLINK-4040,1 53151U 22083V   23076.54258223  .00009238  00000-0  59787-3 0  9990,2 53151  53.2171   8.9993 0001346  94.4974 265.6172 15.08832127 37089,6917.904,95.438,540.701,538.838,0.0
53151.0,STARLINK-4040,PAYLOAD,2023-03-17 19:22:51,15.08839655,0.0001293,53.2171,7.8096,92.3208,267.7932,0.00068797,0.00010678,0.0,0 STARLINK-4040,1 53151U 22083V   23076.80754217  .00010678  00000-0  68797-3 0  9994,2 53151  53.2171   7.8096 0001293  92.3208 267.7932 15.08839655 37124,6917.881,95.438,540.641,538.852,0.0
53151.0,STARLINK-4040,PAYLOAD,2023-03-18 04:55:10,15.08859769,0.0001402,53.2178,6.0267,83.5256,276.5896,0.0012604,0.00019839,0.0,0 STARLINK-4040,1 53151U 22083V   23077.20497842  .00019839  00000-0  12604-2 0  9990,2 53151  53.2178   6.0267 0001402  83.5256 276.5896 15.08859769 37810,6917.82,95.436,540.655,538.715,0.0
53151.0,STARLINK-4040,PAYLOAD,2023-03-18 22:24:24,15.08857009,0.0001134,53.218,2.7566,81.9582,278.1539,0.00047494,7.282e-05,0.0,0 STARLINK-4040,1 53151U 22083V   23077.93361374  .00007282  00000-0  47494-3 0  9995,2 53151  53.2180   2.7566 0001134  81.9582 278.1539 15.08857009 37293,6917.828,95.436,540.478,538.909,0.0
53151.0,STARLINK-4040,PAYLOAD,2023-03-18 23:59:47,15.08859125,0.0001137,53.2182,2.4593,79.8137,280.2983,0.0005348,8.238e-05,0.0,0 STARLINK-4040,1 53151U 22083V   23077.99985273  .00008238  00000-0  53480-3 0  9995,2 53151  53.2182   2.4593 0001137  79.8137 280.2983 15.08859125 37936,6917.822,95.436,540.473,538.9,0.0
53151.0,STARLINK-4040,PAYLOAD,2023-03-19 04:45:56,15.08867636,0.000121,53.2183,1.5667,81.2063,278.9066,0.00080532,0.00012562,0.0,0 STARLINK-4040,1 53151U 22083V   23078.19856922  .00012562  00000-0  80532-3 0  9999,2 53151  53.2183   1.5667 0001210  81.2063 278.9066 15.08867636 37332,6917.796,95.436,540.498,538.824,0.0
53151.0,STARLINK-4040,PAYLOAD,2023-03-20 04:36:43,15.08897323,0.0001303,53.2183,357.1072,60.1823,299.9299,0.0034722,0.00055494,0.0,0 STARLINK-4040,1 53151U 22083V   23079.19216741  .00055494  00000-0  34722-2 0  9999,2 53151  53.2183 357.1072 0001303  60.1823 299.9299 15.08897323 38119,6917.705,95.434,540.472,538.669,0.0
53151.0,STARLINK-4040,PAYLOAD,2023-03-21 06:02:54,15.08817855,0.0001178,53.2185,352.35,94.2375,265.8752,0.00015032,2.104e-05,0.0,0 STARLINK-4040,1 53151U 22083V   23080.25201808  .00002104  00000-0  15032-3 0  9990,2 53151  53.2185 352.3500 0001178  94.2375 265.8752 15.08817855 38279,6917.948,95.439,540.628,538.998,0.0
53151.0,STARLINK-4040,PAYLOAD,2023-03-21 21:56:47,15.08811936,0.000114,53.2176,349.377,52.3793,307.7303,0.0015096,0.000238,0.0,0 STARLINK-4040,1 53151U 22083V   23080.91443872  .00023800  00000-0  15096-2 0  9997,2 53151  53.2176 349.3770 0001140  52.3793 307.7303 15.08811936 37745,6917.966,95.439,540.62,539.043,0.0
53151.0,STARLINK-4040,PAYLOAD,2023-03-22 02:42:56,15.08855874,0.000112,53.2179,348.4848,97.556,262.5559,0.0037252,0.00059525,0.0,0 STARLINK-4040,1 53151U 22083V   23081.11315640  .00059525  00000-0  37252-2 0  9992,2 53151  53.2179 348.4848 0001120  97.5560 262.5559 15.08855874 38409,6917.832,95.437,540.472,538.922,0.0
